[Satellite]
VERSION=1.1
NAME=SAUDISAT 3
NICKNAME=SAUDISAT 3
TLE1=1 31118U 07012B   15055.45685357  .00000294  00000-0  58035-4 0  9993
TLE2=2 31118  97.7434  83.7397 0016594  91.0922 269.2191 14.68815101421142
